{
  "type": "FeatureCollection",
  "features": [
    {
      "type": "Feature",
      "properties": {
        "norad_id": 33376,
        "name": "GALAXY 19 (G-19)",
        "group": "intelsat",
        "lat": -0.032515462052215144,
        "lon": 167.58032290107826,
        "alt_km": 35789.94616117781,
        "timestamp": "2025-12-22T11:33:20.096908+00:00",
        "meta_object_name": "GALAXY 19 (G-19)",
        "meta_object_id": "2008-045A",
        "meta_epoch": "2025-12-21T21:17:47.584320",
        "meta_mean_motion": 1.00270959,
        "meta_eccentricity": 0.0002568,
        "meta_inclination": 0.0489,
        "meta_ra_of_asc_node": 266.5576,
        "meta_arg_of_pericenter": 10.4377,
        "meta_mean_anomaly": 36.151,
        "meta_ephemeris_type": 0,
        "meta_classification_type": "U",
        "meta_norad_cat_id": 33376,
        "meta_element_set_no": 999,
        "meta_rev_at_epoch": 6312,
        "meta_bstar": 0,
        "meta_mean_motion_dot": -1.17e-06,
        "meta_mean_motion_ddot": 0,
        "tle_line1": "1 33376U 08045A   25355.88735630 -.00000117  00000+0  00000+0 0  9997",
        "tle_line2": "2 33376   0.0489 266.5576 0002568  10.4377  36.1510  1.00270959 63126"
      },
      "geometry": {
        "type": "Point",
        "coordinates": [
          167.58032290107826,
          -0.032515462052215144
        ]
      }
    },
    {
      "type": "Feature",
      "properties": {
        "norad_id": 35493,
        "name": "FM-5",
        "group": "intelsat",
        "lat": -0.017074433822099243,
        "lon": 178.4803022030354,
        "alt_km": 35781.40684424014,
        "timestamp": "2025-12-22T11:33:20.096936+00:00",
        "meta_object_name": "FM-5",
        "meta_object_id": "2009-034A",
        "meta_epoch": "2025-12-21T19:38:11.685120",
        "meta_mean_motion": 1.00270992,
        "meta_eccentricity": 0.0001242,
        "meta_inclination": 0.0256,
        "meta_ra_of_asc_node": 287.4791,
        "meta_arg_of_pericenter": 232.5612,
        "meta_mean_anomaly": 139.006,
        "meta_ephemeris_type": 0,
        "meta_classification_type": "U",
        "meta_norad_cat_id": 35493,
        "meta_element_set_no": 999,
        "meta_rev_at_epoch": 4486,
        "meta_bstar": 0,
        "meta_mean_motion_dot": -1.78e-06,
        "meta_mean_motion_ddot": 0,
        "tle_line1": "1 35493U 09034A   25355.81819080 -.00000178  00000+0  00000+0 0  9990",
        "tle_line2": "2 35493   0.0256 287.4791 0001242 232.5612 139.0060  1.00270992 44868"
      },
      "geometry": {
        "type": "Point",
        "coordinates": [
          178.4803022030354,
          -0.017074433822099243
        ]
      }
    },
    {
      "type": "Feature",
      "properties": {
        "norad_id": 36097,
        "name": "INTELSAT 14 (IS-14)",
        "group": "intelsat",
        "lat": -0.012640550756426845,
        "lon": -140.412337045166,
        "alt_km": 35781.80022588826,
        "timestamp": "2025-12-22T11:33:20.096954+00:00",
        "meta_object_name": "INTELSAT 14 (IS-14)",
        "meta_object_id": "2009-064A",
        "meta_epoch": "2025-12-22T02:40:45.871392",
        "meta_mean_motion": 1.00270203,
        "meta_eccentricity": 0.0002504,
        "meta_inclination": 0.0086,
        "meta_ra_of_asc_node": 26.5169,
        "meta_arg_of_pericenter": 256.4707,
        "meta_mean_anomaly": 163.1282,
        "meta_ephemeris_type": 0,
        "meta_classification_type": "U",
        "meta_norad_cat_id": 36097,
        "meta_element_set_no": 999,
        "meta_rev_at_epoch": 5883,
        "meta_bstar": 0,
        "meta_mean_motion_dot": -2.51e-06,
        "meta_mean_motion_ddot": 0,
        "tle_line1": "1 36097U 09064A   25356.11164203 -.00000251  00000+0  00000+0 0  9990",
        "tle_line2": "2 36097   0.0086  26.5169 0002504 256.4707 163.1282  1.00270203 58834"
      },
      "geometry": {
        "type": "Point",
        "coordinates": [
          -140.412337045166,
          -0.012640550756426845
        ]
      }
    },
    {
      "type": "Feature",
      "properties": {
        "norad_id": 36106,
        "name": "INTELSAT 15 (IS-15)",
        "group": "intelsat",
        "lat": -0.007533183201863515,
        "lon": -10.202474165366462,
        "alt_km": 35782.659846325376,
        "timestamp": "2025-12-22T11:33:20.096967+00:00",
        "meta_object_name": "INTELSAT 15 (IS-15)",
        "meta_object_id": "2009-067A",
        "meta_epoch": "2025-12-21T22:09:42.611040",
        "meta_mean_motion": 1.00271577,
        "meta_eccentricity": 0.0002187,
        "meta_inclination": 0.0182,
        "meta_ra_of_asc_node": 356.5187,
        "meta_arg_of_pericenter": 285.6468,
        "meta_mean_anomaly": 226.1604,
        "meta_ephemeris_type": 0,
        "meta_classification_type": "U",
        "meta_norad_cat_id": 36106,
        "meta_element_set_no": 999,
        "meta_rev_at_epoch": 3945,
        "meta_bstar": 0,
        "meta_mean_motion_dot": -1.63e-06,
        "meta_mean_motion_ddot": 0,
        "tle_line1": "1 36106U 09067A   25355.92340985 -.00000163  00000+0  00000+0 0  9997",
        "tle_line2": "2 36106   0.0182 356.5187 0002187 285.6468 226.1604  1.00271577 39453"
      },
      "geometry": {
        "type": "Point",
        "coordinates": [
          -10.202474165366462,
          -0.007533183201863515
        ]
      }
    },
    {
      "type": "Feature",
      "properties": {
        "norad_id": 36131,
        "name": "DIRECTV 12",
        "group": "intelsat",
        "lat": 0.01233268442547095,
        "lon": 161.90068448694305,
        "alt_km": 35787.71867370482,
        "timestamp": "2025-12-22T11:33:20.096979+00:00",
        "meta_object_name": "DIRECTV 12",
        "meta_object_id": "2009-075A",
        "meta_epoch": "2025-12-22T00:41:35.567232",
        "meta_mean_motion": 1.00271569,
        "meta_eccentricity": 3.79e-05,
        "meta_inclination": 0.0143,
        "meta_ra_of_asc_node": 95.5691,
        "meta_arg_of_pericenter": 255.4203,
        "meta_mean_anomaly": 7.5366,
        "meta_ephemeris_type": 0,
        "meta_classification_type": "U",
        "meta_norad_cat_id": 36131,
        "meta_element_set_no": 999,
        "meta_rev_at_epoch": 4477,
        "meta_bstar": 0,
        "meta_mean_motion_dot": -8.2e-07,
        "meta_mean_motion_ddot": 0,
        "tle_line1": "1 36131U 09075A   25356.02888388 -.00000082  00000+0  00000+0 0  9990",
        "tle_line2": "2 36131   0.0143  95.5691 0000379 255.4203   7.5366  1.00271569 44779"
      },
      "geometry": {
        "type": "Point",
        "coordinates": [
          161.90068448694305,
          0.01233268442547095
        ]
      }
    },
    {
      "type": "Feature",
      "properties": {
        "norad_id": 36397,
        "name": "INTELSAT 16 (IS-16)",
        "group": "intelsat",
        "lat": -0.01620062429396039,
        "lon": -171.6025620438096,
        "alt_km": 35785.52250117969,
        "timestamp": "2025-12-22T11:33:20.096991+00:00",
        "meta_object_name": "INTELSAT 16 (IS-16)",
        "meta_object_id": "2010-006A",
        "meta_epoch": "2025-12-22T02:31:54.220224",
        "meta_mean_motion": 1.00270697,
        "meta_eccentricity": 0.000183,
        "meta_inclination": 0.0156,
        "meta_ra_of_asc_node": 316.6614,
        "meta_arg_of_pericenter": 315.0478,
        "meta_mean_anomaly": 140.9897,
        "meta_ephemeris_type": 0,
        "meta_classification_type": "U",
        "meta_norad_cat_id": 36397,
        "meta_element_set_no": 999,
        "meta_rev_at_epoch": 5787,
        "meta_bstar": 0,
        "meta_mean_motion_dot": -2.23e-06,
        "meta_mean_motion_ddot": 0,
        "tle_line1": "1 36397U 10006A   25356.10548866 -.00000223  00000+0  00000+0 0  9990",
        "tle_line2": "2 36397   0.0156 316.6614 0001830 315.0478 140.9897  1.00270697 57876"
      },
      "geometry": {
        "type": "Point",
        "coordinates": [
          -171.6025620438096,
          -0.01620062429396039
        ]
      }
    },
    {
      "type": "Feature",
      "properties": {
        "norad_id": 37185,
        "name": "XM-5",
        "group": "intelsat",
        "lat": -0.03913273144844256,
        "lon": 149.42945138871968,
        "alt_km": 35776.337711289125,
        "timestamp": "2025-12-22T11:33:20.097003+00:00",
        "meta_object_name": "XM-5",
        "meta_object_id": "2010-053A",
        "meta_epoch": "2025-12-22T01:52:21.785952",
        "meta_mean_motion": 1.002727,
        "meta_eccentricity": 0.0002258,
        "meta_inclination": 0.0685,
        "meta_ra_of_asc_node": 270.6816,
        "meta_arg_of_pericenter": 234.8564,
        "meta_mean_anomaly": 218.255,
        "meta_ephemeris_type": 0,
        "meta_classification_type": "U",
        "meta_norad_cat_id": 37185,
        "meta_element_set_no": 999,
        "meta_rev_at_epoch": 5570,
        "meta_bstar": 0,
        "meta_mean_motion_dot": -1e-08,
        "meta_mean_motion_ddot": 0,
        "tle_line1": "1 37185U 10053A   25356.07802993 -.00000001  00000+0  00000+0 0  9992",
        "tle_line2": "2 37185   0.0685 270.6816 0002258 234.8564 218.2550  1.00272700 55703"
      },
      "geometry": {
        "type": "Point",
        "coordinates": [
          149.42945138871968,
          -0.03913273144844256
        ]
      }
    }
  ]
}